STARLINK-3159
1 19415C 21104H   21326.14827670 -.00864886  00000-0 -32492-2 0  3268
2 19415  53.2176  90.8330 0024809  64.8993 234.4305 15.87440783    13
